H1 CPF 01  gfz 2022 04 18 12  6082 terrasarx 
H2 0702601  6201 31698    2022 04 18 12 59 42 2022 04 23 00 00 42   120 1 1  0 0 0
H9
10 0 59688  26622.000000  0    5567288.669  -1567328.528   3733459.758
10 0 59688  26742.000000  0    5934976.942  -1873321.982   2945373.196
10 0 59688  26862.000000  0    6193779.185  -2152042.941   2105421.897
10 0 59688  26982.000000  0    6339703.795  -2396676.212   1228394.908
10 0 59688  27102.000000  0    6370866.269  -2600958.229    329739.093
10 0 59688  27222.000000  0    6287513.329  -2759326.418   -574721.105
10 0 59688  27342.000000  0    6092004.333  -2867054.802  -1469071.531
10 0 59688  27462.000000  0    5788748.395  -2920372.762  -2337597.524
10 0 59688  27582.000000  0    5384101.259  -2916563.354  -3165066.369
10 0 59688  27702.000000  0    4886225.126  -2854039.337  -3936998.226
10 0 59688  27822.000000  0    4304915.529  -2732396.242  -4639919.844
10 0 59688  27942.000000  0    3651398.776  -2552440.608  -5261597.199
10 0 59688  28062.000000  0    2938105.748  -2316192.719  -5791240.623
10 0 59688  28182.000000  0    2178430.671  -2026865.651  -6219681.302
10 0 59688  28302.000000  0    1386477.784  -1688821.186  -6539520.630
10 0 59688  28422.000000  0     576798.541  -1307501.838  -6745247.460
10 0 59688  28542.000000  0    -235872.774   -889342.759  -6833322.615
10 0 59688  28662.000000  0   -1036881.681   -441664.348  -6802232.513
10 0 59688  28782.000000  0   -1811911.541     27453.008  -6652512.418
10 0 59688  28902.000000  0   -2547233.710    509311.346  -6386737.309
10 0 59688  29022.000000  0   -3229945.037    994751.663  -6009482.169
10 0 59688  29142.000000  0   -3848191.341   1474323.320  -5527252.505
10 0 59688  29262.000000  0   -4391374.960   1938463.595  -4948383.648
10 0 59688  29382.000000  0   -4850341.311   2377686.158  -4282908.290
10 0 59688  29502.000000  0   -5217540.135   2782773.496  -3542392.242
10 0 59688  29622.000000  0   -5487158.384   3144968.739  -2739742.352
10 0 59688  29742.000000  0   -5655222.792   3456164.629  -1888987.546
10 0 59688  29862.000000  0   -5719667.374   3709084.504  -1005035.112
10 0 59688  29982.000000  0   -5680363.416   3897449.566   -103406.823
10 0 59688  30102.000000  0   -5539111.433   4016129.172    800039.309
10 0 59688  30222.000000  0   -5299593.118   4061268.757   1689397.480
10 0 59688  30342.000000  0   -4967283.777   4030391.556   2549003.250
10 0 59688  30462.000000  0   -4549329.755   3922472.949   3363717.149
10 0 59688  30582.000000  0   -4054393.276   3737985.171   4119198.808
10 0 59688  30702.000000  0   -3492468.392   3478909.921   4802163.402
10 0 59688  30822.000000  0   -2874673.826   3148721.144   5400616.650
10 0 59688  30942.000000  0   -2213026.558   2752337.140   5904063.905
10 0 59688  31062.000000  0   -1520202.817   2296043.979   6303690.310
10 0 59688  31182.000000  0    -809290.508   1787391.520   6592508.749
10 0 59688  31302.000000  0     -93541.133   1235065.532   6765474.279
10 0 59688  31422.000000  0     613876.810    648737.586   6819567.527
10 0 59688  31542.000000  0    1300119.462     38895.528   6753843.554
10 0 59688  31662.000000  0    1952899.516   -583343.212   6569447.684
10 0 59688  31782.000000  0    2560705.612  -1206433.819   6269597.438
10 0 59688  31902.000000  0    3113006.137  -1818617.269   5859530.717
10 0 59688  32022.000000  0    3600434.817  -2408142.628   5346419.960
10 0 59688  32142.000000  0    4014953.494  -2963493.394   4739252.343
10 0 59688  32262.000000  0    4349989.698  -3473614.915   4048678.242
10 0 59688  32382.000000  0    4600546.301  -3928138.241   3286828.393
10 0 59688  32502.000000  0    4763281.052  -4317595.134   2467102.242
10 0 59688  32622.000000  0    4836553.117  -4633618.470   1603929.813
10 0 59688  32742.000000  0    4820434.427  -4869123.270    712513.001
10 0 59688  32862.000000  0    4716686.167  -5018464.606   -191448.962
10 0 59688  32982.000000  0    4528700.967  -5077567.075  -1092044.015
10 0 59688  33102.000000  0    4261412.745  -5044022.896  -1973436.667
10 0 59688  33222.000000  0    3921174.758  -4917155.815  -2820154.231
10 0 59688  33342.000000  0    3515610.778  -4698049.626  -3617364.063
10 0 59688  33462.000000  0    3053443.101  -4389541.409  -4351135.408
10 0 59688  33582.000000  0    2544302.507  -3996180.075  -5008682.046
10 0 59688  33702.000000  0    1998524.056  -3524150.704  -5578579.174
10 0 59688  33822.000000  0    1426936.055  -2981169.920  -6050951.747
10 0 59688  33942.000000  0     840645.536  -2376354.872  -6417635.515
10 0 59688  34062.000000  0     250823.384  -1720066.168  -6672307.983
10 0 59688  34182.000000  0    -331505.513  -1023728.354  -6810586.635
10 0 59688  34302.000000  0    -895663.091   -299632.324  -6830095.443
10 0 59688  34422.000000  0   -1431508.920    439277.290  -6730500.717
10 0 59688  34542.000000  0   -1929618.403   1179627.485  -6513515.614
10 0 59688  34662.000000  0   -2381444.544   1907852.950  -6182873.810
10 0 59688  34782.000000  0   -2779462.568   2610438.520  -5744272.702
10 0 59688  34902.000000  0   -3117295.682   3274166.811  -5205285.945
10 0 59688  35022.000000  0   -3389819.948   3886366.517  -4575244.636
10 0 59688  35142.000000  0   -3593246.257   4435156.973  -3865086.233
10 0 59688  35262.000000  0   -3725175.518   4909682.876  -3087172.778
10 0 59688  35382.000000  0   -3784626.605   5300334.218  -2255082.981
10 0 59688  35502.000000  0   -3772038.032   5598948.181  -1383379.697
10 0 59688  35622.000000  0   -3689240.724   5798987.822   -487354.662
10 0 59688  35742.000000  0   -3539401.356   5895689.435    417244.550
10 0 59688  35862.000000  0   -3326939.936   5886176.446   1314497.909
10 0 59688  35982.000000  0   -3057419.751   5769536.464   2188603.547
10 0 59688  36102.000000  0   -2737412.799   5546856.753   3024166.444
10 0 59688  36222.000000  0   -2374346.204   5221217.986   3806476.661
10 0 59688  36342.000000  0   -1976333.827   4797648.990   4521772.902
10 0 59688  36462.000000  0   -1551997.047   4283043.111   5157486.786
10 0 59688  36582.000000  0   -1110278.382   3686038.442   5702463.774
10 0 59688  36702.000000  0    -660253.282   3016864.173   6147155.207
10 0 59688  36822.000000  0    -210944.488   2287157.815   6483779.992
10 0 59688  36942.000000  0     228857.466   1509758.224   6706454.334
10 0 59688  37062.000000  0     650765.344    698476.454   6811289.443
10 0 59688  37182.000000  0    1046954.054   -132150.499   6796454.046
10 0 59688  37302.000000  0    1410304.705   -967118.933   6662205.147
10 0 59688  37422.000000  0    1734532.282  -1791229.137   6410884.345
10 0 59688  37542.000000  0    2014294.764  -2589361.451   6046880.138
10 0 59688  37662.000000  0    2245282.154  -3346755.053   5576556.415
10 0 59688  37782.000000  0    2424283.838  -4049283.790   5008146.428
10 0 59688  37902.000000  0    2549232.595  -4683723.515   4351614.324
10 0 59688  38022.000000  0    2619226.193  -5238007.625   3618485.608
10 0 59688  38142.000000  0    2634524.395  -5701464.574   2821647.000
10 0 59688  38262.000000  0    2596520.690  -6065032.287   1975119.597
10 0 59688  38382.000000  0    2507689.841  -6321441.806   1093808.257
10 0 59688  38502.000000  0    2371513.133  -6465367.458    193234.840
10 0 59688  38622.000000  0    2192382.869  -6493541.630   -710742.513
10 0 59688  38742.000000  0    1975487.222  -6404827.055  -1602219.326
10 0 59688  38862.000000  0    1726677.803  -6200244.713  -2465533.125
10 0 59688  38982.000000  0    1452325.049  -5882959.664  -3285546.231
10 0 59688  39102.000000  0    1159165.103  -5458220.136  -4047914.776
10 0 59688  39222.000000  0     854143.955  -4933259.250  -4739338.743
10 0 59688  39342.000000  0     544260.352  -4317159.691  -5347789.841
10 0 59688  39462.000000  0     236412.026  -3620685.746  -5862713.390
10 0 59688  39582.000000  0     -62751.592  -2856086.102  -6275201.525
10 0 59688  39702.000000  0    -346967.010  -2036872.782  -6578135.821
10 0 59688  39822.000000  0    -610482.452  -1177580.571  -6766298.826
10 0 59688  39942.000000  0    -848169.428   -293511.122  -6836455.047
10 0 59688  40062.000000  0   -1055618.702    599535.432  -6787399.969
10 0 59688  40182.000000  0   -1229219.810   1485535.563  -6619977.592
10 0 59688  40302.000000  0   -1366222.498   2348522.585  -6337067.256
10 0 59688  40422.000000  0   -1464779.513   3172867.433  -5943540.504
10 0 59688  40542.000000  0   -1523970.842   3943558.838  -5446186.726
10 0 59688  40662.000000  0   -1543807.929   4646476.127  -4853606.904
10 0 59688  40782.000000  0   -1525218.688   5268652.118  -4176076.469
10 0 59688  40902.000000  0   -1470012.648   5798519.456  -3425376.381
10 0 59688  41022.000000  0   -1380826.311   6226134.454  -2614595.774
10 0 59688  41142.000000  0   -1261050.283   6543375.066  -1757909.288
10 0 59688  41262.000000  0   -1114739.179   6744107.178   -870329.874
10 0 59688  41382.000000  0    -946506.444   6824313.614     32555.995
10 0 59688  41502.000000  0    -761406.013   6782184.434    934867.672
10 0 59688  41622.000000  0    -564803.989   6618162.405   1820719.687
10 0 59688  41742.000000  0    -362243.839   6334939.947   2674511.779
10 0 59688  41862.000000  0    -159308.837   5937410.854   3481210.541
10 0 59688  41982.000000  0      38514.583   5432580.404   4226619.072
10 0 59688  42102.000000  0     225969.510   4829435.729   4897633.319
10 0 59688  42222.000000  0     398155.198   4138770.822   5482474.049
10 0 59688  42342.000000  0     550643.056   3372984.817   5970887.701
10 0 59688  42462.000000  0     679579.847   2545851.728   6354323.480
10 0 59688  42582.000000  0     781775.496   1672265.803   6626076.782
10 0 59688  42702.000000  0     854774.887    767969.160   6781400.603
10 0 59688  42822.000000  0     896911.981   -150733.404   6817582.467
10 0 59688  42942.000000  0     907345.459  -1067267.000   6733989.478
10 0 59688  43062.000000  0     886075.133  -1965085.612   6532079.606
99
